FLOCK 2K-30             
1 42872U 17042AZ  17298.18627967  .00009780  00000-0  29592-3 0  9994
2 42872  96.9940 201.7405 0009756 238.3332 121.6961 15.34335678 15560
FLOCK 2K-44             
1 42873U 17042BA  17298.24902426  .00008089  00000-0  24527-3 0  9992
2 42873  96.9941 201.8083 0010829 224.8280 135.2090 15.34311487 15588
FLOCK 2K-43             
1 42874U 17042BB  17298.19706361  .00004055  00000-0  12689-3 0  9992
2 42874  96.9946 201.7285 0011415 225.7282 134.3026 15.33596789 15578
FLOCK 2K-41             
1 42875U 17042BC  17298.70423020  .00012349  00000-0  37295-3 0  9993
2 42875  96.9941 202.2392 0011003 224.0329 136.0039 15.34322775 15651
FLOCK 2K-36             
1 42876U 17042BD  17298.70080015  .00012244  00000-0  36961-3 0  9990
2 42876  96.9943 202.2468 0011230 223.6653 136.3703 15.34337530 15651
FLOCK 2K-35             
1 42877U 17042BE  17298.44191364  .00004426  00000-0  13525-3 0  9996
2 42877  96.9943 201.9962 0011071 225.2855 134.7488 15.34308812 15611
FLOCK 2K-34             
1 42878U 17042BF  17297.72106521  .00003899  00000-0  11939-3 0  9998
2 42878  96.9943 201.3161 0011141 228.3151 131.7140 15.34313054 15502
FLOCK 2K-33             
1 42879U 17042BG  17298.43594792  .00016999  00000-0  51232-3 0  9994
2 42879  96.9942 201.9998 0011291 225.0223 135.0107 15.34316215 15610
FLOCK 2K-28             
1 42880U 17042BH  17298.19386251  .00003893  00000-0  12186-3 0  9992
2 42880  96.9948 201.7342 0011429 226.1328 133.8972 15.33613083 15573
LEMUR-2-ARTFISCHER      
1 42881U 17042BJ  17298.51084050  .00008627  00000-0  26378-3 0  9999
2 42881  96.9970 202.0854 0011934 227.7494 132.2738 15.34015231 15613
FLOCK 2K-27             
1 42882U 17042BK  17298.17308765  .00009218  00000-0  27946-3 0  9993
2 42882  96.9943 201.7592 0011326 226.8465 133.1833 15.34272369 15570
FLOCK 2K-26             
1 42883U 17042BL  17298.23538260  .00005616  00000-0  17104-3 0  9999
2 42883  96.9943 201.8224 0011233 225.4195 134.6133 15.34298282 15588
FLOCK 2K-25             
1 42884U 17042BM  17297.78493355  .00003839  00000-0  11786-3 0  9999
2 42884  96.9942 201.3786 0011203 227.8720 132.1573 15.34236652 15510
FLOCK 2K-20             
1 42885U 17042BN  17298.16889815  .00009866  00000-0  29865-3 0  9996
2 42885  96.9943 201.7645 0011344 225.8015 134.2297 15.34300651 15574
FLOCK 2K-19             
1 42886U 17042BP  17297.71537333  .00006122  00000-0  18629-3 0  9990
2 42886  96.9942 201.3284 0011359 227.6024 132.4259 15.34289106 15507
FLOCK 2K-18             
1 42887U 17042BQ  17298.68292777  .00004582  00000-0  13924-3 0  9999
2 42887  96.9944 202.2667 0011772 222.7335 137.2994 15.34459347 15656
FLOCK 2K-17             
1 42888U 17042BR  17297.77338065  .00003644  00000-0  11166-3 0  9994
2 42888  96.9942 201.3922 0011573 226.6360 133.3921 15.34329827 15510
FLOCK 2K-16             
1 42889U 17042BS  17297.97148338  .00009643  00000-0  29116-3 0  9998
2 42889  96.9945 201.5819 0011288 225.8380 134.1937 15.34388389 15544
FLOCK 2K-15             
1 42890U 17042BT  17298.68202810  .00004649  00000-0  14118-3 0  9992
2 42890  96.9949 202.2740 0011705 222.0732 137.9615 15.34475021 15651
FLOCK 2K-13             
1 42891U 17042BU  17298.16723900  .00004956  00000-0  15119-3 0  9997
2 42891  96.9943 201.7649 0011518 222.2360 137.7998 15.34298298 15571
FLOCK 2K-14             
1 42892U 17042BV  17298.68428215  .00004338  00000-0  13222-3 0  9993
2 42892  96.9940 202.2607 0011721 221.8242 138.2107 15.34396437 15650
FLOCK 2K-12             
1 42893U 17042BW  17298.28867377  .00004795  00000-0  14521-3 0  9996
2 42893  96.9945 201.9017 0011765 222.7387 137.2943 15.34549930 15593
FLOCK 2K-11             
1 42894U 17042BX  17298.81593020  .00004882  00000-0  14870-3 0  9991
2 42894  96.9946 202.3905 0011725 218.7107 141.3298 15.34354917 15674
FLOCK 2K-10             
1 42895U 17042BY  17298.22405262  .00009885  00000-0  29797-3 0  9999
2 42895  96.9941 201.8327 0011848 221.7315 138.3026 15.34427342 15581
FLOCK 2K-09             
1 42896U 17042BZ  17298.67721174  .00004632  00000-0  14072-3 0  9997
2 42896  96.9946 202.2743 0011637 218.7790 141.2620 15.34463990 15822
FLOCK 2K-06             
1 42897U 17042CA  17298.38820419  .00007473  00000-0  22703-3 0  9994
2 42897  96.9941 201.9199 0009570 236.8145 123.2182 15.34290901 15606
SILU-1 (SILKROAD 1)     
1 42903U 17021F   17298.74192130  .00021332  00000-0  23983-3 0  9992
2 42903  42.7816 298.1088 0005744  93.6523 263.3571 15.62149563 13140
